GLOBALSTAR M063         
1 26081U 00008A   25063.82385962 -.00000071  00000+0  16670-3 0  9995
2 26081  51.9979  26.4254 0004926 112.4851 258.4644 11.86166638145251
GLOBALSTAR M062         
1 26082U 00008B   25063.48462022 -.00000116  00000+0 -12568-3 0  9994
2 26082  51.9859  43.6778 0006702 248.3758 260.8472 12.43459613483590
GLOBALSTAR M060         
1 26083U 00008C   25063.26134715 -.00000080  00000+0  10938-3 0  9994
2 26083  52.0052 349.5009 0002856 276.3885 244.7135 12.17657542139756
GLOBALSTAR M064         
1 26084U 00008D   25063.43950774 -.00000096  00000+0 -17527-3 0  9994
2 26084  52.0022 127.5023 0001732 195.8962 164.1816 11.88529882154645
GLOBALSTAR M065         
1 31571U 07020A   25063.52696816  .00000063  00000+0  93655-3 0  9994
2 31571  51.9884 184.8198 0010872  78.4147   2.2330 12.61996278820193
GLOBALSTAR M069         
1 31573U 07020C   25063.53458947 -.00000052  00000+0  32699-3 0  9998
2 31573  51.9942 149.7240 0001341 114.7410 348.0607 12.44935341821167
GLOBALSTAR M072         
1 31574U 07020D   25063.35637965 -.00000081  00000+0  48235-4 0  9994
2 31574  52.0139 271.0353 0001976 111.4217  59.7900 11.91777017818966
GLOBALSTAR M071         
1 31576U 07020F   25063.44070883 -.00000024  00000+0  66229-3 0  9995
2 31576  52.0055 164.3414 0000686 190.6967 247.4110 12.18249341482178
